STARLINK-5706           
1 55488U 23015AR  23241.29446228 -.00002685  00000+0 -18372-3 0  9996
2 55488  43.0036 316.2557 0001325 264.1399  95.9292 15.02548794 31704
STARLINK-5371           
1 55489U 23015AS  23240.91002917  .00000390  00000+0  43950-4 0  9998
2 55489  43.0027 318.5380 0001030 277.3546  82.7179 15.02531763 31646
STARLINK-5373           
1 55490U 23015AT  23240.62635320  .00000777  00000+0  72600-4 0  9991
2 55490  43.0041 319.8424 0001169 273.4042  86.6666 15.02537443 31609
STARLINK-5364           
1 55491U 23015AU  23241.29386913 -.00000204  00000+0 -66632-7 0  9995
2 55491  43.0020 290.2436 0001032 268.9907  91.0817 15.02533598 32000
STARLINK-5013           
1 55492U 23015AV  23241.36427078  .00000862  00000+0  78856-4 0  9998
2 55492  43.0030 315.9200 0001102 267.0911  92.9806 15.02534830 31534
STARLINK-5362           
1 55493U 23015AW  23240.69393835  .00001182  00000+0  10254-3 0  9990
2 55493  43.0032 319.4922 0001040 273.4228  86.6495 15.02543060 31618
STARLINK-5344           
1 55494U 23015AX  23241.28891071  .00000161  00000+0  26967-4 0  9997
2 55494  43.0040 316.2140 0001337 272.1167  87.9522 15.02539082 31706
STARLINK-5100           
1 55495U 23015AY  23241.41251461  .00000584  00000+0  58301-4 0  9992
2 55495  43.0028 290.2805 0001092 279.6706  80.4013 15.02538274 31830
STARLINK-5363           
1 55497U 23015BA  23241.28558505  .00000892  00000+0  81080-4 0  9990
2 55497  43.0036 316.1892 0001150 273.2631  86.8080 15.02534745 31706
STARLINK-5365           
1 55498U 23015BB  23241.27670315  .00000792  00000+0  73731-4 0  9997
2 55498  43.0042 316.1176 0001301 253.6186 106.4513 15.02534498 31709
STARLINK-5366           
1 55499U 23015BC  23240.60638044 -.00000783  00000+0 -42915-4 0  9999
2 55499  43.0036 319.6949 0001306 321.5699  38.5050 15.02540131 32352
STARLINK-5141           
1 55500U 23015BD  23240.61747384  .00000232  00000+0  32262-4 0  9992
2 55500  43.0039 319.7724 0001228 283.0908  76.9797 15.02539013 31606
STARLINK-5367           
1 55501U 23015BE  23240.60970690  .00000789  00000+0  73469-4 0  9991
2 55501  43.0027 319.7198 0000963 305.7324  54.3428 15.02533622 31609
STARLINK-5749           
1 55569U 23020A   23240.70454216  .00000537  00000+0  54802-4 0  9994
2 55569  43.0048 345.6846 0001340 275.8555  84.2135 15.02537913 29923
STARLINK-5737           
1 55570U 23020B   23240.70565021 -.00001106  00000+0 -66781-4 0  9997
2 55570  43.0049 345.7001 0001315 274.8888  85.1804 15.02545226 29929
STARLINK-5739           
1 55571U 23020C   23240.70232233  .00000441  00000+0  47703-4 0  9996
2 55571  43.0049 345.6767 0001400 286.8684  73.2005 15.02536816 29926
STARLINK-5732           
1 55572U 23020D   23240.56381815  .00000176  00000+0  28078-4 0  9991
2 55572  43.0048 346.3567 0001471 274.5503  85.5172 15.02534384 29901
STARLINK-5738           
1 55573U 23020E   23240.69899006  .00000509  00000+0  52765-4 0  9992
2 55573  43.0044 345.6434 0001263 252.1011 107.9694 15.02539227 29929
STARLINK-5747           
1 55574U 23020F   23241.35266817  .00001363  00000+0  11598-3 0  9992
2 55574  43.0049 341.9503 0001466 255.6091 104.4588 15.02539656 30025
STARLINK-5745           
1 55575U 23020G   23241.35822039 -.00000261  00000+0 -42599-5 0  9992
2 55575  43.0061 341.9931 0001714 269.3527  90.7119 15.02532645 30025
STARLINK-5751           
1 55576U 23020H   23241.26562222  .00000494  00000+0  51627-4 0  9995
2 55576  43.0036 316.1680 0001138 273.2010  86.8703 15.02534313 30315
STARLINK-5752           
1 55577U 23020J   23241.39906903  .00000703  00000+0  68465-4 0  9999
2 55577  43.0038 339.6989 0001191 266.7190  93.3516 15.01728954 30056
STARLINK-5713           
1 55578U 23020K   23240.68234754  .00000541  00000+0  55077-4 0  9994
2 55578  43.0036 345.5215 0000903 272.9633  87.1106 15.02535384 29928
STARLINK-5754           
1 55579U 23020L   23241.40138704 -.00001757  00000+0 -11496-3 0  9992
2 55579  43.0037 341.4618 0001192 270.7902  89.2804 15.02553135 30034
STARLINK-5757           
1 55580U 23020M   23240.92990296  .00000283  00000+0  36009-4 0  9991
2 55580  43.0039 317.9485 0001101 280.7731  79.2987 15.02534814 30268
STARLINK-5753           
1 55581U 23020N   23241.01695052 -.00001206  00000+0 -74172-4 0  9996
2 55581  43.0039 343.7313 0001471 254.2730 105.7950 15.02546779 29975
STARLINK-5741           
1 55582U 23020P   23241.38056385 -.00003540  00000+0 -24699-3 0  9998
2 55582  43.0037 328.3479 0000305 235.1150 124.9664 15.02555834 30187
STARLINK-5742           
1 55583U 23020Q   23240.67900940  .00001143  00000+0  99656-4 0  9996
2 55583  43.0048 345.4987 0001543 264.4557  95.6110 15.02539321 29928
STARLINK-5736           
1 55584U 23020R   23240.67568561  .00001308  00000+0  11190-3 0  9995
2 55584  43.0034 345.4770 0001079 292.0211  68.0517 15.02536368 29925
STARLINK-5769           
1 55585U 23020S   23240.57185085  .00001080  00000+0  95027-4 0  9990
2 55585  43.0049 333.4546 0001304 283.5960  76.4737 15.02535530 30050
STARLINK-5767           
1 55586U 23020T   23240.73439500  .00001928  00000+0  15776-3 0  9996
2 55586  43.0038 345.0563 0001159 276.2689  83.8022 15.02534356 29931
STARLINK-5727           
1 55587U 23020U   23241.32914775  .00000833  00000+0  78289-4 0  9998
2 55587  43.0039 340.0345 0001253 271.4218  88.6481 15.01723993 30048
STARLINK-5728           
1 55588U 23020V   23240.59477879  .00000195  00000+0  29476-4 0  9991
2 55588  43.0045 345.7279 0001256 272.4206  87.6492 15.02536453 29914
STARLINK-5697           
1 55589U 23020W   23241.39694500 -.00002931  00000+0 -20184-3 0  9991
2 55589  43.0040 341.4274 0000983 242.6048 117.4694 15.02557836 30036
STARLINK-5762           
1 55590U 23020X   23241.38695929  .00001037  00000+0  91790-4 0  9994
2 55590  43.0041 341.3528 0001166 277.2610  82.8100 15.02542701 30035
STARLINK-5760           
1 55591U 23020Y   23240.73106524  .00000941  00000+0  84702-4 0  9999
2 55591  43.0040 345.0293 0001125 278.8438  81.2277 15.02536551 29936
STARLINK-5759           
1 55592U 23020Z   23241.38141863  .00000245  00000+0  33202-4 0  9993
2 55592  43.0043 341.3106 0001263 272.7480  87.3218 15.02530491 30037
STARLINK-5703           
1 55593U 23020AA  23241.39028903  .00000595  00000+0  59098-4 0  9993
2 55593  43.0021 341.3771 0000995 280.8216  79.2514 15.02538972 30031
STARLINK-5750           
1 55594U 23020AB  23241.37808295  .00000461  00000+0  49218-4 0  9997
2 55594  43.0035 341.2848 0001011 268.6492  91.4235 15.02538750 30031
STARLINK-5740           
1 55595U 23020AC  23241.38363171  .00001279  00000+0  10977-3 0  9995
2 55595  43.0043 341.3236 0001278 278.1634  81.9063 15.02537380 30033
STARLINK-5729           
1 55596U 23020AD  23240.97699402  .00001298  00000+0  11117-3 0  9997
2 55596  43.0050 343.4359 0001412 277.7268  82.3414 15.02537195 29979
STARLINK-5743           
1 55597U 23020AE  23241.30088622  .00000284  00000+0  36065-4 0  9996
2 55597  43.0040 329.4631 0001082 267.3639  92.7080 15.02536005 30162
STARLINK-5756           
1 55598U 23020AF  23240.31481609  .00000319  00000+0  38662-4 0  9993
2 55598  43.0020 334.9298 0000860 248.0529 112.0222 15.02535400 30014
STARLINK-5761           
1 55599U 23020AG  23240.97626114  .00001175  00000+0  10203-3 0  9999
2 55599  43.0043 331.2960 0001272 269.5135  90.5562 15.02538410 30106
STARLINK-5755           
1 55600U 23020AH  23241.29755260 -.00003362  00000+0 -23385-3 0  9990
2 55600  43.0036 329.4241 0001168 278.8243  81.2467 15.02551881 30163
STARLINK-5744           
1 55601U 23020AJ  23240.57479810 -.00000655  00000+0 -33427-4 0  9996
2 55601  43.0049 345.5758 0001495 268.8656  91.2015 15.02540346 29915
STARLINK-5764           
1 55602U 23020AK  23240.57517310  .00000985  00000+0  88003-4 0  9999
2 55602  43.0045 333.4444 0001297 269.6963  90.3730 15.02538069 30050
STARLINK-5735           
1 55603U 23020AL  23240.63499675  .00000746  00000+0  70297-4 0  9991
2 55603  43.0038 333.0496 0001180 282.8895  77.1816 15.02531917 30062
STARLINK-5748           
1 55604U 23020AM  23241.26784161 -.00001467  00000+0 -93530-4 0  9997
2 55604  43.0039 316.1902 0001325 276.8105  83.2587 15.02544199 30313
STARLINK-5725           
1 55605U 23020AN  23240.62945027 -.00000975  00000+0 -57086-4 0  9996
2 55605  43.0036 333.0057 0001057 277.5560  82.5162 15.02537073 30061
STARLINK-5700           
1 55607U 23020AQ  23240.55742027  .00000400  00000+0  44679-4 0  9990
2 55607  43.0052 333.3267 0001679 276.7613  83.3038 15.02535141 30051
STARLINK-5726           
1 55608U 23020AR  23241.35181867 -.00004077  00000+0 -28674-3 0  9991
2 55608  43.0045 328.9706 0001444 282.7131  77.3550 15.02558658 30177
STARLINK-5719           
1 55609U 23020AS  23241.29200410  .00000364  00000+0  41983-4 0  9993
2 55609  43.0048 329.3824 0001319 276.1069  83.9623 15.02536613 30165
STARLINK-5722           
1 55610U 23020AT  23241.34405555  .00000938  00000+0  84492-4 0  9997
2 55610  43.0033 328.9154 0001125 276.4206  83.6508 15.02535468 30170
STARLINK-5730           
1 55611U 23020AU  23240.68149518  .00001901  00000+0  15575-3 0  9994
2 55611  43.0042 332.5419 0001325 274.9198  85.1493 15.02539807 30071
STARLINK-5734           
1 55612U 23020AV  23240.67594299  .00001684  00000+0  13972-3 0  9991
2 55612  43.0052 332.5006 0001282 277.3744  82.6952 15.02541855 30079
STARLINK-5715           
1 55613U 23020AW  23240.55187188  .00000791  00000+0  73659-4 0  9991
2 55613  43.0050 333.2917 0001390 276.9279  83.1405 15.02535301 30051
STARLINK-5714           
1 55614U 23020AX  23241.28004721  .00000645  00000+0  62849-4 0  9991
2 55614  43.0039 316.2456 0001224 259.6062 100.4643 15.02530235 30319
STARLINK-5712           
1 55615U 23020AY  23240.93852737 -.00000393  00000+0 -14041-4 0  9994
2 55615  43.0038 331.0323 0000969 271.4059  88.6672 15.02535894 30113
